start=new Date('2021-11-08T00:00:00.000Z').valueOf();
sats=[{"TLE_LINE2":"2 47133  53.0291 197.9960 0001266  64.9504 295.1616 15.06375358 53386","PERIAPSIS":"546.412","MEAN_MOTION":"15.06375358","COUNTRY_CODE":"US","NORAD_CAT_ID":"47133","RA_OF_ASC_NODE":"197.9960","TIME_SYSTEM":"UTC","ELEMENT_SET_NO":"999","GP_ID":"189215611","OBJECT_NAME":"STARLINK-1843","FILE":"3207836","INCLINATION":"53.0291","BSTAR":"0.00074068000000","EPOCH":"2021-11-07T17:09:53.784576","MEAN_MOTION_DDOT":"0.0000000000000","CENTER_NAME":"EARTH","MEAN_ANOMALY":"295.1616","OBJECT_TYPE":"PAYLOAD","APOAPSIS":"548.166","REV_AT_EPOCH":"5338","PERIOD":"95.594","OBJECT_ID":"2020-088M","RCS_SIZE":"LARGE","MEAN_MOTION_DOT":"0.00010761","ARG_OF_PERICENTER":"64.9504","EPHEMERIS_TYPE":"0","LAUNCH_DATE":"2020-11-25","CLASSIFICATION_TYPE":"U","REF_FRAME":"TEME","SEMIMAJOR_AXIS":"6925.424","DECAY_DATE":null,"MEAN_ELEMENT_THEORY":"SGP4","TLE_LINE1":"1 47133U 20088M   21311.71520584  .00010761  00000-0  74068-3 0  9999","SITE":"AFETR","ECCENTRICITY":"0.00012660"},{"SEMIMAJOR_AXIS":"6925.374","DECAY_DATE":null,"MEAN_ELEMENT_THEORY":"SGP4","EPHEMERIS_TYPE":"0","ARG_OF_PERICENTER":"96.4745","LAUNCH_DATE":"2020-11-25","CLASSIFICATION_TYPE":"U","REF_FRAME":"TEME","ECCENTRICITY":"0.00045600","TLE_LINE1":"1 47134U 20088N   21311.82119135 -.00001390  00000-0 -74362-4 0  9996","SITE":"AFETR","NORAD_CAT_ID":"47134","RA_OF_ASC_NODE":"207.3973","TIME_SYSTEM":"UTC","GP_ID":"189215861","ELEMENT_SET_NO":"999","OBJECT_NAME":"STARLINK-1844","FILE":"3207836","INCLINATION":"53.0538","TLE_LINE2":"2 47134  53.0538 207.3973 0004560  96.4745 263.6763 15.06391732 53262","PERIAPSIS":"544.081","MEAN_MOTION":"15.06391732","COUNTRY_CODE":"US","REV_AT_EPOCH":"5326","PERIOD":"95.593","OBJECT_ID":"2020-088N","RCS_SIZE":"LARGE","MEAN_MOTION_DOT":"-0.00001390","BSTAR":"-0.00007436200000","EPOCH":"2021-11-07T19:42:30.932640","CENTER_NAME":"EARTH","MEAN_MOTION_DDOT":"0.0000000000000","MEAN_ANOMALY":"263.6763","OBJECT_TYPE":"PAYLOAD","APOAPSIS":"550.397"},{"FILE":"3207836","OBJECT_NAME":"STARLINK-1845","INCLINATION":"53.0541","NORAD_CAT_ID":"47135","RA_OF_ASC_NODE":"197.3038","TIME_SYSTEM":"UTC","GP_ID":"189216612","ELEMENT_SET_NO":"999","PERIAPSIS":"546.175","MEAN_MOTION":"15.06376342","COUNTRY_CODE":"US","TLE_LINE2":"2 47135  53.0541 197.3038 0001605  62.3555 297.7597 15.06376342 53404","OBJECT_ID":"2020-088P","RCS_SIZE":"LARGE","MEAN_MOTION_DOT":"0.00015779","REV_AT_EPOCH":"5340","PERIOD":"95.594","OBJECT_TYPE":"PAYLOAD","APOAPSIS":"548.398","MEAN_ANOMALY":"297.7597","EPOCH":"2021-11-07T20:10:23.211552","BSTAR":"0.00107650000000","CENTER_NAME":"EARTH","MEAN_MOTION_DDOT":"0.0000000000000","MEAN_ELEMENT_THEORY":"SGP4","SEMIMAJOR_AXIS":"6925.421","DECAY_DATE":null,"CLASSIFICATION_TYPE":"U","REF_FRAME":"TEME","EPHEMERIS_TYPE":"0","ARG_OF_PERICENTER":"62.3555","LAUNCH_DATE":"2020-11-25","ECCENTRICITY":"0.00016050","SITE":"AFETR","TLE_LINE1":"1 47135U 20088P   21311.84054643  .00015779  00000-0  10765-2 0  9990"},{"OBJECT_TYPE":"PAYLOAD","APOAPSIS":"548.387","MEAN_ANOMALY":"288.8923","MEAN_MOTION_DDOT":"0.0000000000000","CENTER_NAME":"EARTH","EPOCH":"2021-11-07T16:57:59.129568","BSTAR":"0.00044242000000","MEAN_MOTION_DOT":"0.00006306","RCS_SIZE":"LARGE","OBJECT_ID":"2020-088Q","PERIOD":"95.595","REV_AT_EPOCH":"5324","COUNTRY_CODE":"US","MEAN_MOTION":"15.06354812","PERIAPSIS":"546.317","TLE_LINE2":"2 47136  53.0517 207.9007 0001494  71.2228 288.8923 15.06354812 53248","INCLINATION":"53.0517","FILE":"3207836","OBJECT_NAME":"STARLINK-1846","ELEMENT_SET_NO":"999","GP_ID":"189216857","TIME_SYSTEM":"UTC","RA_OF_ASC_NODE":"207.9007","NORAD_CAT_ID":"47136","SITE":"AFETR","TLE_LINE1":"1 47136U 20088Q   21311.70693437  .00006306  00000-0  44242-3 0  9990","ECCENTRICITY":"0.00014940","REF_FRAME":"TEME","CLASSIFICATION_TYPE":"U","LAUNCH_DATE":"2020-11-25","ARG_OF_PERICENTER":"71.2228","EPHEMERIS_TYPE":"0","MEAN_ELEMENT_THEORY":"SGP4","DECAY_DATE":null,"SEMIMAJOR_AXIS":"6925.487"},{"SITE":"AFETR","TLE_LINE1":"1 47137U 20088R   21311.42402734 -.00003578  00000-0 -22171-3 0  9995","ECCENTRICITY":"0.00016040","CLASSIFICATION_TYPE":"U","REF_FRAME":"TEME","EPHEMERIS_TYPE":"0","ARG_OF_PERICENTER":"70.9733","LAUNCH_DATE":"2020-11-25","MEAN_ELEMENT_THEORY":"SGP4","SEMIMAJOR_AXIS":"6925.503","DECAY_DATE":null,"OBJECT_TYPE":"PAYLOAD","APOAPSIS":"548.479","MEAN_ANOMALY":"289.1430","EPOCH":"2021-11-07T10:10:35.962176","BSTAR":"-0.00022171000000","CENTER_NAME":"EARTH","MEAN_MOTION_DDOT":"0.0000000000000","OBJECT_ID":"2020-088R","RCS_SIZE":"LARGE","MEAN_MOTION_DOT":"-0.00003578","REV_AT_EPOCH":"5334","PERIOD":"95.595","PERIAPSIS":"546.257","MEAN_MOTION":"15.06349632","COUNTRY_CODE":"US","TLE_LINE2":"2 47137  53.0526 199.1777 0001604  70.9733 289.1430 15.06349632 53347","OBJECT_NAME":"STARLINK-1849","FILE":"3207387","INCLINATION":"53.0526","NORAD_CAT_ID":"47137","RA_OF_ASC_NODE":"199.1777","TIME_SYSTEM":"UTC","ELEMENT_SET_NO":"999","GP_ID":"189181261"},{"SEMIMAJOR_AXIS":"6925.387","DECAY_DATE":null,"MEAN_ELEMENT_THEORY":"SGP4","ARG_OF_PERICENTER":"74.7605","EPHEMERIS_TYPE":"0","LAUNCH_DATE":"2020-11-25","CLASSIFICATION_TYPE":"U","REF_FRAME":"TEME","ECCENTRICITY":"0.00016800","TLE_LINE1":"1 47138U 20088S   21311.85571622  .00002135  00000-0  16225-3 0  9995","SITE":"AFETR","RA_OF_ASC_NODE":"202.2222","NORAD_CAT_ID":"47138","ELEMENT_SET_NO":"999","GP_ID":"189215361","TIME_SYSTEM":"UTC","INCLINATION":"53.0530","OBJECT_NAME":"STARLINK-1850","FILE":"3207836","TLE_LINE2":"2 47138  53.0530 202.2222 0001680  74.7605 285.3570 15.06387302 53347","PERIAPSIS":"546.089","COUNTRY_CODE":"US","MEAN_MOTION":"15.06387302","REV_AT_EPOCH":"5334","PERIOD":"95.593","OBJECT_ID":"2020-088S","MEAN_MOTION_DOT":"0.00002135","RCS_SIZE":"LARGE","EPOCH":"2021-11-07T20:32:13.881408","BSTAR":"0.00016225000000","MEAN_MOTION_DDOT":"0.0000000000000","CENTER_NAME":"EARTH","OBJECT_TYPE":"PAYLOAD","APOAPSIS":"548.416","MEAN_ANOMALY":"285.3570"},{"ARG_OF_PERICENTER":"70.3855","EPHEMERIS_TYPE":"0","LAUNCH_DATE":"2020-11-25","CLASSIFICATION_TYPE":"U","REF_FRAME":"TEME","SEMIMAJOR_AXIS":"6925.423","DECAY_DATE":null,"MEAN_ELEMENT_THEORY":"SGP4","TLE_LINE1":"1 47139U 20088T   21311.45301000  .00004862  00000-0  34531-3 0  9992","SITE":"AFETR","ECCENTRICITY":"0.00012310","TLE_LINE2":"2 47139  53.0536 214.0449 0001231  70.3855 289.7266 15.06375611 53134","PERIAPSIS":"546.436","COUNTRY_CODE":"US","MEAN_MOTION":"15.06375611","RA_OF_ASC_NODE":"214.0449","NORAD_CAT_ID":"47139","ELEMENT_SET_NO":"999","GP_ID":"189182263","TIME_SYSTEM":"UTC","INCLINATION":"53.0536","FILE":"3207387","OBJECT_NAME":"STARLINK-1852","BSTAR":"0.00034531000000","EPOCH":"2021-11-07T10:52:20.064000","MEAN_MOTION_DDOT":"0.0000000000000","CENTER_NAME":"EARTH","OBJECT_TYPE":"PAYLOAD","APOAPSIS":"548.141","MEAN_ANOMALY":"289.7266","REV_AT_EPOCH":"5313","PERIOD":"95.594","OBJECT_ID":"2020-088T","MEAN_MOTION_DOT":"0.00004862","RCS_SIZE":"LARGE"},{"MEAN_MOTION":"15.78086687","COUNTRY_CODE":"US","PERIAPSIS":"330.173","TLE_LINE2":"2 47140  53.0486 162.9572 0008477 308.7930  51.2332 15.78086687 53899","OBJECT_NAME":"STARLINK-1853","FILE":"3207836","INCLINATION":"53.0486","TIME_SYSTEM":"UTC","ELEMENT_SET_NO":"999","GP_ID":"189216357","NORAD_CAT_ID":"47140","RA_OF_ASC_NODE":"162.9572","OBJECT_TYPE":"PAYLOAD","MEAN_ANOMALY":"51.2332","APOAPSIS":"341.555","CENTER_NAME":"EARTH","MEAN_MOTION_DDOT":"0.0000000000000","EPOCH":"2021-11-07T21:09:52.488864","BSTAR":"0.00039261000000","RCS_SIZE":"LARGE","MEAN_MOTION_DOT":"0.00068294","OBJECT_ID":"2020-088U","PERIOD":"91.250","REV_AT_EPOCH":"5389","REF_FRAME":"TEME","CLASSIFICATION_TYPE":"U","LAUNCH_DATE":"2020-11-25","EPHEMERIS_TYPE":"0","ARG_OF_PERICENTER":"308.7930","MEAN_ELEMENT_THEORY":"SGP4","DECAY_DATE":null,"SEMIMAJOR_AXIS":"6713.999","SITE":"AFETR","TLE_LINE1":"1 47140U 20088U   21311.88185751  .00068294  00000-0  39261-3 0  9998","ECCENTRICITY":"0.00084770"},{"COUNTRY_CODE":"US","MEAN_MOTION":"15.06390625","PERIAPSIS":"546.140","TLE_LINE2":"2 47141  53.0637 197.1483 0001591  62.7484 297.3667 15.06390625 53413","INCLINATION":"53.0637","OBJECT_NAME":"STARLINK-1854","FILE":"3207836","ELEMENT_SET_NO":"999","GP_ID":"189215612","TIME_SYSTEM":"UTC","RA_OF_ASC_NODE":"197.1483","NORAD_CAT_ID":"47141","OBJECT_TYPE":"PAYLOAD","APOAPSIS":"548.344","MEAN_ANOMALY":"297.3667","CENTER_NAME":"EARTH","MEAN_MOTION_DDOT":"0.0000000000000","EPOCH":"2021-11-07T20:42:12.895200","BSTAR":"0.00008555000000","MEAN_MOTION_DOT":"0.00000993","RCS_SIZE":"LARGE","OBJECT_ID":"2020-088V","PERIOD":"95.593","REV_AT_EPOCH":"5341","REF_FRAME":"TEME","CLASSIFICATION_TYPE":"U","LAUNCH_DATE":"2020-11-25","EPHEMERIS_TYPE":"0","ARG_OF_PERICENTER":"62.7484","MEAN_ELEMENT_THEORY":"SGP4","DECAY_DATE":null,"SEMIMAJOR_AXIS":"6925.377","SITE":"AFETR","TLE_LINE1":"1 47141U 20088V   21311.86264925  .00000993  00000-0  85550-4 0  9993","ECCENTRICITY":"0.00015910"},{"OBJECT_TYPE":"PAYLOAD","MEAN_ANOMALY":"287.3437","APOAPSIS":"548.426","EPOCH":"2021-11-07T17:04:36.946272","BSTAR":"0.00051143000000","MEAN_MOTION_DDOT":"0.0000000000000","CENTER_NAME":"EARTH","OBJECT_ID":"2020-088X","RCS_SIZE":"LARGE","MEAN_MOTION_DOT":"0.00007337","REV_AT_EPOCH":"5338","PERIOD":"95.594","PERIAPSIS":"546.216","MEAN_MOTION":"15.06364972","COUNTRY_CODE":"US","TLE_LINE2":"2 47143  53.0531 197.8738 0001595  72.7726 287.3437 15.06364972 53388","FILE":"3207836","OBJECT_NAME":"STARLINK-1856","INCLINATION":"53.0531","NORAD_CAT_ID":"47143","RA_OF_ASC_NODE":"197.8738","TIME_SYSTEM":"UTC","GP_ID":"189215862","ELEMENT_SET_NO":"999","SITE":"AFETR","TLE_LINE1":"1 47143U 20088X   21311.71153873  .00007337  00000-0  51143-3 0  9997","ECCENTRICITY":"0.00015950","CLASSIFICATION_TYPE":"U","REF_FRAME":"TEME","EPHEMERIS_TYPE":"0","ARG_OF_PERICENTER":"72.7726","LAUNCH_DATE":"2020-11-25","MEAN_ELEMENT_THEORY":"SGP4","SEMIMAJOR_AXIS":"6925.456","DECAY_DATE":null}];
